[{"OBJECT_NAME":"STARLINK-5938","OBJECT_ID":"2023-037AY","EPOCH":"2026-03-09T23:17:21.115392","MEAN_MOTION":14.98346488,"ECCENTRICITY":0.00042438,"INCLINATION":69.9975,"RA_OF_ASC_NODE":263.7927,"ARG_OF_PERICENTER":337.2128,"MEAN_ANOMALY":22.8842,"EPHEMERIS_TYPE":0,"CLASSIFICATION_TYPE":"U","NORAD_CAT_ID":55960,"ELEMENT_SET_NO":999,"REV_AT_EPOCH":16451,"BSTAR":0.00018218909,"MEAN_MOTION_DOT":2.082e-5,"MEAN_MOTION_DDOT":0},{"OBJECT_NAME":"RROCI-2","OBJECT_ID":"2024-043J","EPOCH":"2026-03-09T21:40:56.693280","MEAN_MOTION":14.99383357,"ECCENTRICITY":0.00054118,"INCLINATION":97.8279,"RA_OF_ASC_NODE":200.9973,"ARG_OF_PERICENTER":337.3784,"MEAN_ANOMALY":22.7199,"EPHEMERIS_TYPE":0,"CLASSIFICATION_TYPE":"U","NORAD_CAT_ID":59106,"ELEMENT_SET_NO":999,"REV_AT_EPOCH":10988,"BSTAR":0.00035067832,"MEAN_MOTION_DOT":4.232e-5,"MEAN_MOTION_DDOT":0}]
